[{"OBJECT_NAME":"STARLINK-3235","OBJECT_ID":"2021-125AW","EPOCH":"2026-03-09T17:56:50.245728","MEAN_MOTION":15.08839601,"ECCENTRICITY":0.00011819,"INCLINATION":53.2163,"RA_OF_ASC_NODE":238.8203,"ARG_OF_PERICENTER":101.1932,"MEAN_ANOMALY":258.9193,"EPHEMERIS_TYPE":0,"CLASSIFICATION_TYPE":"U","NORAD_CAT_ID":50200,"ELEMENT_SET_NO":999,"REV_AT_EPOCH":23675,"BSTAR":2.536694e-6,"MEAN_MOTION_DOT":-2.47e-6,"MEAN_MOTION_DDOT":0},{"OBJECT_NAME":"FENGYUN 1C DEB","OBJECT_ID":"1999-025BQF","EPOCH":"2026-03-08T19:58:36.101856","MEAN_MOTION":15.15826086,"ECCENTRICITY":0.00798835,"INCLINATION":98.9812,"RA_OF_ASC_NODE":89.4872,"ARG_OF_PERICENTER":83.7388,"MEAN_ANOMALY":277.2932,"EPHEMERIS_TYPE":0,"CLASSIFICATION_TYPE":"U","NORAD_CAT_ID":31327,"ELEMENT_SET_NO":999,"REV_AT_EPOCH":1401,"BSTAR":0.0018254058,"MEAN_MOTION_DOT":0.00037915,"MEAN_MOTION_DDOT":0}]
